OBJECT_NAME,OBJECT_ID,EPOCH,MEAN_MOTION,ECCENTRICITY,INCLINATION,RA_OF_ASC_NODE,ARG_OF_PERICENTER,MEAN_ANOMALY,EPHEMERIS_TYPE,CLASSIFICATION_TYPE,NORAD_CAT_ID,ELEMENT_SET_NO,REV_AT_EPOCH,BSTAR,MEAN_MOTION_DOT,MEAN_MOTION_DDOT
INTELSAT 23 (IS-23),2012-057A,2026-06-25T12:20:53.409120,1.00271894,.000012,0.0152,11.7546,150.4114,243.6979,0,U,38867,999,5003,0,-.275E-5,0
FM-6,2013-058A,2026-06-25T15:27:45.066240,1.00271100,.0001623,0.0158,48.8208,131.9588,208.6381,0,U,39360,999,4615,0,-.6E-7,0
INTELSAT 30 (IS-30),2014-062A,2026-06-25T08:43:33.617856,1.00272157,.0001489,0.0269,55.6231,338.6494,275.0652,0,U,40271,999,687,0,-.141E-5,0
DIRECTV 14,2014-078B,2026-06-25T08:42:18.739296,1.00272630,.0000354,0.0098,19.2836,6.4271,279.1338,0,U,40333,999,4212,0,-.116E-5,0
DIRECTV 15,2015-026A,2026-06-25T14:22:09.281856,1.00270410,.0000531,0.0181,60.7496,337.7907,347.8520,0,U,40663,999,4054,0,-.92E-6,0
SKY MEXICO-1,2015-026B,2026-06-25T12:13:31.613088,1.00268983,.0002676,0.0256,359.1063,115.2462,263.8772,0,U,40664,999,4053,0,0,0
INTELSAT 34 (IS-34),2015-039A,2026-06-25T08:54:47.542176,1.00270119,.0000477,0.0077,354.3653,26.9885,330.3532,0,U,40874,999,3971,0,-.275E-5,0
INTELSAT 31 (IS-31),2016-035A,2026-06-25T08:43:33.617856,1.00270776,.0000686,0.0133,298.7394,318.5498,52.0469,0,U,41581,999,3676,0,-.141E-5,0
INTELSAT 36 (IS-36),2016-053A,2026-06-25T04:22:12.926784,1.00272521,.00020421,0.0128,20.9268,321.7510,64.7168,0,U,41747,999,3603,0,-.15E-6,0
INTELSAT 32E (IS-32E),2017-007B,2026-06-25T15:48:43.055424,1.00268510,.0000688,0.0263,11.9073,345.1971,110.6851,0,U,41945,999,3431,0,0,0
INTELSAT 35E (IS-35E),2017-041A,2026-06-25T12:26:00.416832,1.00269523,.000238,0.0245,11.9779,83.8780,329.8151,0,U,42818,999,3289,0,0,0
INTELSAT 37E (IS-37E),2017-059A,2026-06-25T19:21:30.684960,1.00270010,.0002918,0.0271,20.7230,74.5777,91.0235,0,U,42950,999,3215,0,0,0
AZERSPACE 2 (IS-38),2018-074A,2026-06-25T04:15:28.573056,1.00272596,.00015866,0.0035,82.5969,10.3273,289.3716,0,U,43632,999,2852,0,.146E-5,0
HORIZONS-3E,2018-074B,2026-06-24T03:11:02.118624,1.00270268,.00005468,0.0084,244.9552,64.2971,179.8035,0,U,43633,999,2841,0,-.24E-6,0
AT&T T-16,2019-034A,2026-06-24T08:32:38.551200,1.00269632,.00004225,0.0237,70.4808,236.8286,352.4898,0,U,44333,999,2570,0,-.107E-5,0
INTELSAT 39 (IS-39),2019-049B,2026-06-25T12:53:41.563104,1.00270995,.0000772,0.0262,7.3307,349.0040,172.7126,0,U,44476,999,2521,0,0,0
GALAXY 30 (G-30),2020-056C,2026-06-24T17:11:02.937408,1.00270732,.00022205,0.0130,51.5985,38.3382,315.6757,0,U,46114,999,2136,0,.46E-6,0
GALAXY 33 (G-33),2022-128A,2026-06-25T18:25:49.234944,1.00271130,.000203,0.0148,358.7447,90.5916,328.0209,0,U,54026,999,1382,0,.9E-6,0
GALAXY 34 (G-34),2022-128B,2026-06-24T13:44:36.682656,1.00277187,.00020668,0.0145,9.2904,88.7541,251.8415,0,U,54027,999,1398,0,.66E-6,0
GALAXY 31 (G-31),2022-153A,2026-06-25T15:26:45.159936,1.00269960,.0001667,0.0178,9.2644,87.3314,287.8728,0,U,54243,999,721,0,0,0
GALAXY 32 (G-32),2022-153B,2026-06-24T05:22:05.316096,1.00271380,.0002133,0.0097,2.1596,41.7877,217.9513,0,U,54244,999,1321,0,-.167E-5,0
GALAXY 35 (G-35),2022-170A,2026-06-25T14:17:11.164704,1.00271505,.0002132,0.0153,313.6076,137.8189,303.4899,0,U,54741,999,1297,0,-.152E-5,0
GALAXY 36 (G-36),2022-170B,2026-06-25T15:35:51.786816,1.00271722,.0002842,0.0347,130.3608,317.6415,330.7526,0,U,54742,999,1285,0,-.175E-5,0
GALAXY 37 (G-37),2023-112A,2026-06-25T15:25:00.329088,1.00271487,.0002204,0.0129,39.7813,51.1738,287.0745,0,U,57493,999,1062,0,.58E-6,0
